BEIJING 1               
1 28890U 05043A   24234.50117689  .00001445  00000+0  29420-3 0  9994
2 28890  98.2075 356.9130 0014463 197.5341 162.5363 14.62481400  3442
HUANJING 1A (HJ-1A)     
1 33320U 08041A   24234.53541201  .00004279  00000+0  56477-3 0  9993
2 33320  97.6327 238.3412 0021102 153.6176 206.6116 14.80383234860029
HUANJING 1B (HJ-1B)     
1 33321U 08041B   24234.52815059  .00003069  00000+0  40197-3 0  9996
2 33321  97.6271 242.8559 0037675 200.0409 159.9327 14.80567812860040
YAOGAN-4                
1 33446U 08061A   24234.33532376  .00003757  00000+0  50023-3 0  9996
2 33446  97.8792 164.9920 0016651  75.8303 284.4758 14.80175046847193
DEIMOS-1                
1 35681U 09041A   24234.45792633  .00002074  00000+0  32615-3 0  9993
2 35681  97.6831  52.8970 0002041 132.7014 227.4367 14.73524521808927
UK-DMC 2                
1 35683U 09041C   24234.46410509  .00003127  00000+0  48730-3 0  9990
2 35683  97.7904  19.4619 0001086  95.0135 265.1198 14.73611805808623
DMC3-FM1                
1 40715U 15032A   24234.51067937  .00002177  00000+0  26820-3 0  9998
2 40715  97.7396 111.4878 0007311  81.5616 278.6427 14.83907642491261
DMC3-FM2                
1 40716U 15032B   24234.53323232  .00002387  00000+0  29335-3 0  9991
2 40716  97.7449 112.6229 0009219  84.7774 275.4492 14.83915903491269
DMC3-FM3                
1 40717U 15032C   24234.56182099  .00002386  00000+0  29384-3 0  9992
2 40717  97.7497 113.9573 0010655  82.2260 278.0164 14.83823072491279
